{"type": "FeatureCollection", "features": [ {"type": "Feature", "properties": {"norad_id": 66919, "name": "HULIANWANG DIGUI 14E", "group": "last-30-days", "lat": -38.34279918236689, "lon": 85.14837076903737, "alt_km": 872.7938469367255, "timestamp": "2025-12-10T09:57:43.490657+00:00", "meta": {"OBJECT_NAME": "HULIANWANG DIGUI 14E", "OBJECT_ID": "2025-285E", "EPOCH": "2025-12-10T05:05:59.373600", "MEAN_MOTION": 14.05714488, "ECCENTRICITY": 0.0007862, "INCLINATION": 50.0056, "RA_OF_ASC_NODE": 127.5808, "ARG_OF_PERICENTER": 283.0794, "MEAN_ANOMALY": 76.9234, "EPHEMERIS_TYPE": 0, "CLASSIFICATION_TYPE": "U", "NORAD_CAT_ID": 66919, "ELEMENT_SET_NO": 999, "REV_AT_EPOCH": 55, "BSTAR": -5.6807e-06, "MEAN_MOTION_DOT": -1.61e-06, "MEAN_MOTION_DDOT": 0}, "tle": {"line1": "1 66919U 25285E   25344.21249275 -.00000161  00000+0 -56807-5 0  9993", "line2": "2 66919  50.0056 127.5808 0007862 283.0794  76.9234 14.05714488   559"}}, "geometry": {"type": "Point", "coordinates": [85.14837076903737, -38.34279918236689]}}, {"type": "Feature", "properties": {"norad_id": 66920, "name": "HULIANWANG DIGUI 14F", "group": "last-30-days", "lat": -29.62567877135761, "lon": 98.11399640222471, "alt_km": 843.2873803835109, "timestamp": "2025-12-10T09:57:43.490671+00:00", "meta": {"OBJECT_NAME": "HULIANWANG DIGUI 14F", "OBJECT_ID": "2025-285F", "EPOCH": "2025-12-09T20:33:41.276736", "MEAN_MOTION": 14.11847534, "ECCENTRICITY": 0.0030597, "INCLINATION": 50.004, "RA_OF_ASC_NODE": 128.9355, "ARG_OF_PERICENTER": 264.6131, "MEAN_ANOMALY": 95.1286, "EPHEMERIS_TYPE": 0, "CLASSIFICATION_TYPE": "U", "NORAD_CAT_ID": 66920, "ELEMENT_SET_NO": 999, "REV_AT_EPOCH": 50, "BSTAR": 0.00026469, "MEAN_MOTION_DOT": 3.34e-06, "MEAN_MOTION_DDOT": 0}, "tle": {"line1": "1 66920U 25285F   25343.85672774  .00000334  00000+0  26469-3 0  9997", "line2": "2 66920  50.0040 128.9355 0030597 264.6131  95.1286 14.11847534   508"}}, "geometry": {"type": "Point", "coordinates": [98.11399640222471, -29.62567877135761]}}, {"type": "Feature", "properties": {"norad_id": 66921, "name": "HULIANWANG DIGUI 14G", "group": "last-30-days", "lat": -36.94745308927972, "lon": 87.61003509503499, "alt_km": 872.6962053952975, "timestamp": "2025-12-10T09:57:43.490682+00:00", "meta": {"OBJECT_NAME": "HULIANWANG DIGUI 14G", "OBJECT_ID": "2025-285G", "EPOCH": "2025-12-10T05:05:20.636160", "MEAN_MOTION": 14.05883408, "ECCENTRICITY": 0.0006977, "INCLINATION": 50.0104, "RA_OF_ASC_NODE": 127.5835, "ARG_OF_PERICENTER": 286.6615, "MEAN_ANOMALY": 73.3524, "EPHEMERIS_TYPE": 0, "CLASSIFICATION_TYPE": "U", "NORAD_CAT_ID": 66921, "ELEMENT_SET_NO": 999, "REV_AT_EPOCH": 55, "BSTAR": 0.00024257, "MEAN_MOTION_DOT": 2.47e-06, "MEAN_MOTION_DDOT": 0}, "tle": {"line1": "1 66921U 25285G   25344.21204440  .00000247  00000+0  24257-3 0  9996", "line2": "2 66921  50.0104 127.5835 0006977 286.6615  73.3524 14.05883408   555"}}, "geometry": {"type": "Point", "coordinates": [87.61003509503499, -36.94745308927972]}}, {"type": "Feature", "properties": {"norad_id": 66922, "name": "HULIANWANG DIGUI 14H", "group": "last-30-days", "lat": -35.95555760108914, "lon": 89.2396294494512, "alt_km": 872.1506578544704, "timestamp": "2025-12-10T09:57:43.490692+00:00", "meta": {"OBJECT_NAME": "HULIANWANG DIGUI 14H", "OBJECT_ID": "2025-285H", "EPOCH": "2025-12-10T05:04:53.876352", "MEAN_MOTION": 14.0599812, "ECCENTRICITY": 0.0006933, "INCLINATION": 50.0078, "RA_OF_ASC_NODE": 127.5783, "ARG_OF_PERICENTER": 292.8348, "MEAN_ANOMALY": 67.1825, "EPHEMERIS_TYPE": 0, "CLASSIFICATION_TYPE": "U", "NORAD_CAT_ID": 66922, "ELEMENT_SET_NO": 999, "REV_AT_EPOCH": 55, "BSTAR": -4.0309e-06, "MEAN_MOTION_DOT": -1.59e-06, "MEAN_MOTION_DDOT": 0}, "tle": {"line1": "1 66922U 25285H   25344.21173468 -.00000159  00000+0 -40309-5 0  9994", "line2": "2 66922  50.0078 127.5783 0006933 292.8348  67.1825 14.05998120   555"}}, "geometry": {"type": "Point", "coordinates": [89.2396294494512, -35.95555760108914]}}, {"type": "Feature", "properties": {"norad_id": 66923, "name": "HULIANWANG DIGUI 14J", "group": "last-30-days", "lat": -35.418636265745825, "lon": 90.0947763983373, "alt_km": 873.1350321316086, "timestamp": "2025-12-10T09:57:43.490701+00:00", "meta": {"OBJECT_NAME": "HULIANWANG DIGUI 14J", "OBJECT_ID": "2025-285J", "EPOCH": "2025-12-10T05:04:39.849312", "MEAN_MOTION": 14.06054815, "ECCENTRICITY": 0.0005386, "INCLINATION": 50.0075, "RA_OF_ASC_NODE": 127.5783, "ARG_OF_PERICENTER": 287.7981, "MEAN_ANOMALY": 72.2337, "EPHEMERIS_TYPE": 0, "CLASSIFICATION_TYPE": "U", "NORAD_CAT_ID": 66923, "ELEMENT_SET_NO": 999, "REV_AT_EPOCH": 55, "BSTAR": 0.00019275, "MEAN_MOTION_DOT": 1.66e-06, "MEAN_MOTION_DDOT": 0}, "tle": {"line1": "1 66923U 25285J   25344.21157233  .00000166  00000+0  19275-3 0  9999", "line2": "2 66923  50.0075 127.5783 0005386 287.7981  72.2337 14.06054815   550"}}, "geometry": {"type": "Point", "coordinates": [90.0947763983373, -35.418636265745825]}}, {"type": "Feature", "properties": {"norad_id": 66924, "name": "CZ-8A R/B", "group": "last-30-days", "lat": -38.61135857749473, "lon": 83.95140010933883, "alt_km": 870.088447600905, "timestamp": "2025-12-10T09:57:43.490711+00:00", "meta": {"OBJECT_NAME": "CZ-8A R/B", "OBJECT_ID": "2025-285K", "EPOCH": "2025-12-10T03:30:48.313728", "MEAN_MOTION": 14.30500165, "ECCENTRICITY": 0.0119314, "INCLINATION": 50.006, "RA_OF_ASC_NODE": 127.1939, "ARG_OF_PERICENTER": 97.5969, "MEAN_ANOMALY": 263.8518, "EPHEMERIS_TYPE": 0, "CLASSIFICATION_TYPE": "U", "NORAD_CAT_ID": 66924, "ELEMENT_SET_NO": 999, "REV_AT_EPOCH": 55, "BSTAR": 9.1739e-05, "MEAN_MOTION_DOT": 9.3e-07, "MEAN_MOTION_DDOT": 0}, "tle": {"line1": "1 66924U 25285K   25344.14639252  .00000093  00000+0  91739-4 0  9993", "line2": "2 66924  50.0060 127.1939 0119314  97.5969 263.8518 14.30500165   554"}}, "geometry": {"type": "Point", "coordinates": [83.95140010933883, -38.61135857749473]}}, {"type": "Feature", "properties": {"norad_id": 66988, "name": "YAOGAN-47", "group": "last-30-days", "lat": -40.0100724688881, "lon": -136.84017862390863, "alt_km": 477.3311496529923, "timestamp": "2025-12-10T09:57:43.490721+00:00", "meta": {"OBJECT_NAME": "YAOGAN-47", "OBJECT_ID": "2025-289A", "EPOCH": "2025-12-09T22:00:55.912320", "MEAN_MOTION": 15.30229903, "ECCENTRICITY": 0.0009314, "INCLINATION": 97.526, "RA_OF_ASC_NODE": 49.027, "ARG_OF_PERICENTER": 269.0929, "MEAN_ANOMALY": 90.9244, "EPHEMERIS_TYPE": 0, "CLASSIFICATION_TYPE": "U", "NORAD_CAT_ID": 66988, "ELEMENT_SET_NO": 999, "REV_AT_EPOCH": 11, "BSTAR": 0.00026831, "MEAN_MOTION_DOT": 7.778e-05, "MEAN_MOTION_DDOT": 0}, "tle": {"line1": "1 66988U 25289A   25343.91731380  .00007778  00000+0  26831-3 0  9993", "line2": "2 66988  97.5260  49.0270 0009314 269.0929  90.9244 15.30229903   118"}}, "geometry": {"type": "Point", "coordinates": [-136.84017862390863, -40.0100724688881]}}, {"type": "Feature", "properties": {"norad_id": 66989, "name": "CZ-4B R/B", "group": "last-30-days", "lat": 21.033946723289997, "lon": 46.679779400828046, "alt_km": 268.2921839333985, "timestamp": "2025-12-10T09:57:43.490732+00:00", "meta": {"OBJECT_NAME": "CZ-4B R/B", "OBJECT_ID": "2025-289B", "EPOCH": "2025-12-09T21:36:26.229312", "MEAN_MOTION": 15.66138267, "ECCENTRICITY": 0.0152727, "INCLINATION": 97.5273, "RA_OF_ASC_NODE": 49.0436, "ARG_OF_PERICENTER": 13.59, "MEAN_ANOMALY": 346.94, "EPHEMERIS_TYPE": 0, "CLASSIFICATION_TYPE": "U", "NORAD_CAT_ID": 66989, "ELEMENT_SET_NO": 999, "REV_AT_EPOCH": 12, "BSTAR": 0.0002489, "MEAN_MOTION_DOT": 0.00048017, "MEAN_MOTION_DDOT": 2.837e-06}, "tle": {"line1": "1 66989U 25289B   25343.90030358  .00048017  28370-5  24890-3 0  9990", "line2": "2 66989  97.5273  49.0436 0152727  13.5900 346.9400 15.66138267   125"}}, "geometry": {"type": "Point", "coordinates": [46.679779400828046, 21.033946723289997]}}, {"type": "Feature", "properties": {"norad_id": 66990, "name": "TJS-22", "group": "last-30-days", "lat": 11.134916762762613, "lon": -36.10391782754569, "alt_km": 27853.729826109102, "timestamp": "2025-12-10T09:57:43.490743+00:00", "meta": {"OBJECT_NAME": "TJS-22", "OBJECT_ID": "2025-290A", "EPOCH": "2025-12-09T10:19:42.645216", "MEAN_MOTION": 2.281118, "ECCENTRICITY": 0.7302159, "INCLINATION": 28.4275, "RA_OF_ASC_NODE": 302.966, "ARG_OF_PERICENTER": 179.5139, "MEAN_ANOMALY": 182.3589, "EPHEMERIS_TYPE": 0, "CLASSIFICATION_TYPE": "U", "NORAD_CAT_ID": 66990, "ELEMENT_SET_NO": 999, "REV_AT_EPOCH": 19, "BSTAR": 0.00040278, "MEAN_MOTION_DOT": 4.338e-05, "MEAN_MOTION_DDOT": 7.3408e-07}, "tle": {"line1": "1 66990U 25290A   25343.43035469  .00004338  73408-6  40278-3 0  9999", "line2": "2 66990  28.4275 302.9660 7302159 179.5139 182.3589  2.28111800   197"}}, "geometry": {"type": "Point", "coordinates": [-36.10391782754569, 11.134916762762613]}}, {"type": "Feature", "properties": {"norad_id": 66991, "name": "CZ-3B R/B", "group": "last-30-days", "lat": 15.72562841718818, "lon": -26.149281731615464, "alt_km": 21242.355429259063, "timestamp": "2025-12-10T09:57:43.490758+00:00", "meta": {"OBJECT_NAME": "CZ-3B R/B", "OBJECT_ID": "2025-290B", "EPOCH": "2025-12-09T10:36:26.069760", "MEAN_MOTION": 2.37490877, "ECCENTRICITY": 0.7238211, "INCLINATION": 28.4418, "RA_OF_ASC_NODE": 302.9445, "ARG_OF_PERICENTER": 178.8623, "MEAN_ANOMALY": 185.118, "EPHEMERIS_TYPE": 0, "CLASSIFICATION_TYPE": "U", "NORAD_CAT_ID": 66991, "ELEMENT_SET_NO": 999, "REV_AT_EPOCH": 1, "BSTAR": 0.00040065, "MEAN_MOTION_DOT": 0.00010315, "MEAN_MOTION_DDOT": 6.9824e-07}, "tle": {"line1": "1 66991U 25290B   25343.44196840  .00010315  69824-6  40065-3 0  9995", "line2": "2 66991  28.4418 302.9445 7238211 178.8623 185.1180  2.37490877    18"}}, "geometry": {"type": "Point", "coordinates": [-26.149281731615464, 15.72562841718818]}}]}